1  4386U 70036D   24275.44772115 -.00000012  00000-0  28234-4 0  9995
2  4386  74.0258 252.1641 0015224  10.3066 163.6993 12.51859787487852
1 04386U 70036D   24275.68719292 -.00000013  00000-0  16693-4 0  9995
2 04386  74.0258 251.8447 0015233   9.9556 162.9156 12.51859790487374
1 04386U 70036D   24276.40230934 -.00000012  00000-0  26889-4 0  9994
2 04386  74.0259 250.8909 0015235   8.8300 145.7752 12.51859847487468
1 04386U 70036D   24276.94051517 -.00000014  00000-0  12376-4 0  9999
2 04386  74.0260 250.1731 0015244   8.0194  51.3041 12.51859867487532
1 04386U 70036D   24277.43284963 -.00000014  00000-0  11491-4 0  9994
2 04386  74.0261 249.5164 0015253   7.2547 110.1281 12.51859877487595
1  4386U 70036D   24277.68496266 -.00000009  00000-0  43358-4 0  9993
2  4386  74.0261 249.1801 0015260   6.8662 166.3333 12.51859918488138
1 04386U 70036D   24277.89478375 -.00000006  00000-0  62599-4 0  9992
2 04386  74.0261 248.9003 0015262   6.5451  31.9378 12.51859952487654
1 04386U 70036D   24278.39139372 -.00000003  00000-0  84206-4 0  9995
2 04386  74.0262 248.2380 0015274   5.7997 110.0044 12.51859968487718
1 04386U 70036D   24278.93955168 -.00000001  00000-0  95846-4 0  9994
2 04386  74.0263 247.5069 0015285   4.9818  60.3768 12.51859988487789
1 04386U 70036D   24279.35836663  .00000006  00000-0  13970-3 0  9990
2 04386  74.0264 246.9483 0015288   4.3349 147.8638 12.51860020487831
1 04386U 70036D   24279.89841245  .00000010  00000-0  16507-3 0  9995
2 04386  74.0265 246.2279 0015302   3.5106  61.6959 12.51860061487909
1  4386U 70036D   24280.20615995  .00000006  00000-0  14346-3 0  9997
2  4386  74.0266 245.8175 0015308   3.0359   8.6308 12.51860027488453
1 04386U 70036D   24280.38923769  .00000004  00000-0  13042-3 0  9997
2 04386  74.0265 245.5733 0015309   2.7581 113.7081 12.51860010487966
1 04386U 70036D   24280.64171609  .00000006  00000-0  13849-3 0  9991
2 04386  74.0266 245.2366 0015316   2.3901 171.5388 12.51860023487995
1 04386U 70036D   24281.35656646  .00000015  00000-0  19598-3 0  9996
2 04386  74.0267 244.2832 0015335   1.3309 153.1330 12.51860061488081
1 04386U 70036D   24281.89517102  .00000002  00000-0  11376-3 0  9990
2 04386  74.0269 243.5649 0015353   0.5863  60.3916 12.51859972488153
1 04386U 70036D   24282.38706706  .00000014  00000-0  19448-3 0  9996
2 04386  74.0269 242.9089 0015370 359.9340 117.1281 12.51860035488219
1  4386U 70036D   24282.38706706  .00000014  00000-0  19448-3 0  9996
2  4386  74.0269 242.9089 0015370 359.9340 117.1281 12.51860035488725
1 04386U 70036D   24282.63922065  .00000012  00000-0  17920-3 0  9993
2 04386  74.0270 242.5726 0015381 359.5839 173.4774 12.51860021488246
1 04386U 70036D   24283.35734350  .00000020  00000-0  23044-3 0  9994
2 04386  74.0271 241.6148 0015396 358.5930 169.7469 12.51860086488332
1 04386U 70036D   24283.67821196  .00000017  00000-0  21434-3 0  9991
2 04386  74.0271 241.1869 0015404 358.1373 175.7753 12.51860084488379
1 04386U 70036D   24284.31251508  .00000024  00000-0  25381-3 0  9990
2 04386  74.0272 240.3409 0015412 357.1610 154.4071 12.51860172488457
1 04386U 70036D   24284.63694461  .00000020  00000-0  23304-3 0  9993
2 04386  74.0273 239.9082 0015417 356.7131 176.4712 12.51860182488498
1  4386U 70036D   24284.63694461  .00000020  00000-0  23304-3 0  9993
2  4386  74.0273 239.9082 0015417 356.7131 176.4712 12.51860182489006
1 04386U 70036D   24285.59592196  .00000012  00000-0  17690-3 0  9993
2 04386  74.0274 238.6292 0015436 355.3363 178.2219 12.51860190488616
1 04386U 70036D   24285.88333814  .00000012  00000-0  18253-3 0  9991
2 04386  74.0274 238.2459 0015446 354.8874  33.5353 12.51860243488654
1 04386U 70036D   24286.22122837  .00000013  00000-0  18609-3 0  9997
2 04386  74.0275 237.7953 0015450 354.3477 116.3346 12.51860276488699
1 04386U 70036D   24286.84219556  .00000012  00000-0  18042-3 0  9990
2 04386  74.0276 236.9671 0015459 353.4554  34.8020 12.51860367488776
1 04386U 70036D   24287.34067575  .00000006  00000-0  14041-3 0  9996
2 04386  74.0277 236.3024 0015464 352.6379 121.3675 12.51860401488839
1 04386U 70036D   24287.59338564  .00000000  00000-0  10215-3 0  9995
2 04386  74.0277 235.9653 0015469 352.2595 180.2520 12.51860390488866
1 04386U 70036D   24288.30855848 -.00000006  00000-0  63676-4 0  9991
2 04386  74.0279 235.0116 0015478 351.1373 163.3635 12.51860424488952
1 04386U 70036D   24288.83988892 -.00000009  00000-0  45525-4 0  9991
2 04386  74.0279 234.3030 0015490 350.3566  37.8887 12.51860467489028
1  4386U 70036D   24289.17761098 -.00000013  00000-0  19137-4 0  9991
2  4386  74.0279 233.8526 0015495 349.8431 119.9041 12.51860440489576
1 04386U 70036D   24289.33943889 -.00000013  00000-0  20937-4 0  9999
2 04386  74.0279 233.6368 0015499 349.5854 129.2272 12.51860448489082
1 04386U 70036D   24290.30611222 -.00000011  00000-0  29986-4 0  9992
2 04386  74.0281 232.3476 0015513 348.1557 165.7033 12.51860478489200
1 04386U 70036D   24291.58883468 -.00000018  00000-0 -14784-4 0  9994
2 04386  74.0283 230.6371 0015538 346.2845 186.4816 12.51860420489366
1 04386U 70036D   24291.79344935 -.00000018  00000-0 -15267-4 0  9995
2 04386  74.0283 230.3642 0015544 345.9914  28.6025 12.51860424489390
1  4386U 70036D   24291.79344935 -.00000018  00000-0 -15267-4 0  9995
2  4386  74.0283 230.3642 0015544 345.9914  28.6025 12.51860424489907
1 04386U 70036D   24292.29504656 -.00000014  00000-0  15776-4 0  9999
2 04386  74.0284 229.6954 0015552 345.2388 129.1455 12.51860434489457
1 04386U 70036D   24292.62816617 -.00000017  00000-0 -36698-5 0  9990
2 04386  74.0284 229.2512 0015559 344.7367 190.4143 12.51860396489497
1 04386U 70036D   24293.25269229 -.00000007  00000-0  58142-4 0  9996
2 04386  74.0285 228.4184 0015565 343.7846 124.9749 12.51860434489578
1  4386U 70036D   24293.88041605  .00000003  00000-0  12182-3 0  9999
2  4386  74.0286 227.5813 0015568 342.8808  73.8934 12.51860514490163
1 04386U 70036D   24293.96277472  .00000009  00000-0  15748-3 0  9998
2 04386  74.0286 227.4715 0015572 342.7273  85.0886 12.51860554489661
1 04386U 70036D   24294.29281060  .00000017  00000-0  21317-3 0  9991
2 04386  74.0287 227.0314 0015574 342.2337 132.4565 12.51860599489706
1 04386U 70036D   24294.82997564  .00000018  00000-0  21869-3 0  9996
2 04386  74.0288 226.3151 0015580 341.4887  33.2315 12.51860594489779
1 04386U 70036D   24295.26052275  .00000019  00000-0  22784-3 0  9994
2 04386  74.0289 225.7410 0015584 340.8381 173.5784 12.51860598489825
1  4386U 70036D   24296.21892270  .00000019  00000-0  22539-3 0  9995
2  4386  74.0291 224.4630 0015596 339.4330 172.7574 12.51860638490453
1 04386U 70036D   24296.30102819  .00000016  00000-0  20414-3 0  9995
2 04386  74.0290 224.3535 0015603 339.2895 182.8015 12.51860615489958
1 04386U 70036D   24296.91855112  .00000008  00000-0  15287-3 0  9996
2 04386  74.0291 223.5302 0015613 338.4497  85.6991 12.51860592490030
1 04386U 70036D   24297.58211973  .00000007  00000-0  14748-3 0  9991
2 04386  74.0292 222.6454 0015623 337.4999 196.1516 12.51860619490116
1 04386U 70036D   24297.95995672  .00000002  00000-0  11234-3 0  9999
2 04386  74.0293 222.1415 0015625 336.9159  98.9633 12.51860632490162
1  4386U 70036D   24298.22043366  .00000003  00000-0  11885-3 0  9997
2  4386  74.0293 221.7942 0015631 336.5459 192.8314 12.51860642490709
1 04386U 70036D   24298.54095098 -.00000002  00000-0  90430-4 0  9995
2 04386  74.0294 221.3668 0015635 336.0985 197.2703 12.51860645490236
1 04386U 70036D   24298.83470722 -.00000005  00000-0  71313-4 0  9990
2 04386  74.0294 220.9752 0015637 335.6544  81.1423 12.51860667490271
1 04386U 70036D   24299.95874845 -.00000004  00000-0  79869-4 0  9991
2 04386  74.0295 219.4764 0015653 333.9699 106.8472 12.51860776490414
1 04386U 70036D   24300.20491795 -.00000002  00000-0  93071-4 0  9990
2 04386  74.0295 219.1482 0015658 333.6224 136.2353 12.51860797490445
1  4386U 70036D   24300.83236101 -.00000004  00000-0  74072-4 0  9999
2  4386  74.0295 218.3115 0015665 332.6796  83.9290 12.51860852491036
1 04386U 70036D   24300.91480448 -.00000004  00000-0  74500-4 0  9999
2 04386  74.0296 218.2016 0015665 332.5282  95.5042 12.51860860490532
1 04386U 70036D   24301.49785022  .00000002  00000-0  11655-3 0  9997
2 04386  74.0295 217.4242 0015674 331.6716 203.0931 12.51860911490603
1 04386U 70036D   24301.78497597 -.00000007  00000-0  56213-4 0  9992
2 04386  74.0295 217.0414 0015678 331.2916  57.0290 12.51860855490648
1 04386U 70036D   24302.53633429 -.00000012  00000-0  26637-4 0  9995
2 04386  74.0295 216.0396 0015695 330.2171 203.1158 12.51860838490735
1 04386U 70036D   24302.74368743 -.00000011  00000-0  30897-4 0  9994
2 04386  74.0295 215.7631 0015697 329.9042  57.5941 12.51860852490767
1  4386U 70036D   24303.17097021 -.00000012  00000-0  24015-4 0  9996
2  4386  74.0295 215.1934 0015703 329.2655 183.2232 12.51860836491323
1 04386U 70036D   24303.49521163 -.00000011  00000-0  31826-4 0  9997
2 04386  74.0295 214.7610 0015701 328.8270 204.4312 12.51860846490858
1 04386U 70036D   24304.53399419 -.00000002  00000-0  92196-4 0  9997
2 04386  74.0297 213.3759 0015720 327.2775 205.8942 12.51860895490985
1  4386U 70036D   24305.17247966  .00000004  00000-0  12616-3 0  9996
2  4386  74.0297 212.5246 0015733 326.3346 203.3358 12.51860917491570
1 04386U 70036D   24305.25036880  .00000003  00000-0  12029-3 0  9993
2 04386  74.0297 212.4208 0015732 326.2124 194.3635 12.51860917491071
1 04386U 70036D   24305.86855619  .00000009  00000-0  16369-3 0  9996
2 04386  74.0297 211.5965 0015740 325.3038 100.3243 12.51860967491150
1 04386U 70036D   24306.53184403  .00000019  00000-0  22406-3 0  9997
2 04386  74.0297 210.7121 0015749 324.3425 209.5240 12.51861017491238
1 04386U 70036D   24306.90891896  .00000025  00000-0  26319-3 0  9993
2 04386  74.0297 210.2094 0015755 323.7560 108.9055 12.51861081491284
1 04386U 70036D   24307.49053065  .00000026  00000-0  26715-3 0  9997
2 04386  74.0297 209.4339 0015766 322.9149 210.0183 12.51861098491355
